{"type": "FeatureCollection", "features": [ {"type": "Feature", "properties": {"norad_id": 30860, "name": "FENGYUN 1C DEB", "group": "fengyun-1c-debris", "lat": 4.661691659785007, "lon": -108.70374762097995, "alt_km": 781.0746790551893, "timestamp": "2025-12-22T22:44:21.254646+00:00", "meta": {"OBJECT_NAME": "FENGYUN 1C DEB", "OBJECT_ID": "1999-025AWW", "EPOCH": "2025-12-22T03:23:31.327584", "MEAN_MOTION": 14.25560954, "ECCENTRICITY": 0.00402561, "INCLINATION": 98.9048, "RA_OF_ASC_NODE": 69.7454, "ARG_OF_PERICENTER": 161.3889, "MEAN_ANOMALY": 198.8773, "EPHEMERIS_TYPE": 0, "CLASSIFICATION_TYPE": "U", "NORAD_CAT_ID": 30860, "ELEMENT_SET_NO": 999, "REV_AT_EPOCH": 96650, "BSTAR": 0.0014545083, "MEAN_MOTION_DOT": 3.426e-05, "MEAN_MOTION_DDOT": 0}, "tle": {"line1": "1 30860U 99025AWW 25356.14133481  .00003426  00000+0  14545-2 0  9993", "line2": "2 30860  98.9048  69.7454 0040256 161.3889 198.8773 14.25560954966505"}}, "geometry": {"type": "Point", "coordinates": [-108.70374762097995, 4.661691659785007]}}, {"type": "Feature", "properties": {"norad_id": 30862, "name": "FENGYUN 1C DEB", "group": "fengyun-1c-debris", "lat": -79.00963450922285, "lon": -146.07173903684662, "alt_km": 778.6275572067843, "timestamp": "2025-12-22T22:44:21.254657+00:00", "meta": {"OBJECT_NAME": "FENGYUN 1C DEB", "OBJECT_ID": "1999-025AWY", "EPOCH": "2025-12-21T05:43:08.339808", "MEAN_MOTION": 14.43230431, "ECCENTRICITY": 0.0052107, "INCLINATION": 98.9568, "RA_OF_ASC_NODE": 86.4337, "ARG_OF_PERICENTER": 139.0646, "MEAN_ANOMALY": 248.8173, "EPHEMERIS_TYPE": 0, "CLASSIFICATION_TYPE": "U", "NORAD_CAT_ID": 30862, "ELEMENT_SET_NO": 999, "REV_AT_EPOCH": 96842, "BSTAR": 0.0022042, "MEAN_MOTION_DOT": 7.497e-05, "MEAN_MOTION_DDOT": 0}, "tle": {"line1": "1 30862U 99025AWY 25355.23829097  .00007497  00000+0  22042-2 0  9992", "line2": "2 30862  98.9568  86.4337 0052107 139.0646 248.8173 14.43230431968428"}}, "geometry": {"type": "Point", "coordinates": [-146.07173903684662, -79.00963450922285]}}, {"type": "Feature", "properties": {"norad_id": 30863, "name": "FENGYUN 1C DEB", "group": "fengyun-1c-debris", "lat": -54.483433481535165, "lon": -161.3899162937362, "alt_km": 1283.7028787015379, "timestamp": "2025-12-22T22:44:21.254667+00:00", "meta": {"OBJECT_NAME": "FENGYUN 1C DEB", "OBJECT_ID": "1999-025AWZ", "EPOCH": "2025-12-21T07:26:52.161216", "MEAN_MOTION": 12.40539027, "ECCENTRICITY": 0.0877249, "INCLINATION": 99.1205, "RA_OF_ASC_NODE": 184.3542, "ARG_OF_PERICENTER": 232.3747, "MEAN_ANOMALY": 314.6544, "EPHEMERIS_TYPE": 0, "CLASSIFICATION_TYPE": "U", "NORAD_CAT_ID": 30863, "ELEMENT_SET_NO": 999, "REV_AT_EPOCH": 59846, "BSTAR": 0.0027378, "MEAN_MOTION_DOT": 1.406e-05, "MEAN_MOTION_DDOT": 0}, "tle": {"line1": "1 30863U 99025AWZ 25355.31032594  .00001406  00000+0  27378-2 0  9991", "line2": "2 30863  99.1205 184.3542 0877249 232.3747 314.6544 12.40539027598462"}}, "geometry": {"type": "Point", "coordinates": [-161.3899162937362, -54.483433481535165]}}, {"type": "Feature", "properties": {"norad_id": 30867, "name": "FENGYUN 1C DEB", "group": "fengyun-1c-debris", "lat": -28.502582221102802, "lon": -92.9016063187104, "alt_km": 765.4129706219092, "timestamp": "2025-12-22T22:44:21.254678+00:00", "meta": {"OBJECT_NAME": "FENGYUN 1C DEB", "OBJECT_ID": "1999-025AXD", "EPOCH": "2025-12-20T17:11:38.053824", "MEAN_MOTION": 14.28078006, "ECCENTRICITY": 0.00538965, "INCLINATION": 97.8775, "RA_OF_ASC_NODE": 260.7732, "ARG_OF_PERICENTER": 332.7008, "MEAN_ANOMALY": 55.1129, "EPHEMERIS_TYPE": 0, "CLASSIFICATION_TYPE": "U", "NORAD_CAT_ID": 30867, "ELEMENT_SET_NO": 999, "REV_AT_EPOCH": 96651, "BSTAR": 0.001474724, "MEAN_MOTION_DOT": 3.685e-05, "MEAN_MOTION_DDOT": 0}, "tle": {"line1": "1 30867U 99025AXD 25354.71641266  .00003685  00000+0  14747-2 0  9997", "line2": "2 30867  97.8775 260.7732 0053896 332.7008  55.1129 14.28078006966516"}}, "geometry": {"type": "Point", "coordinates": [-92.9016063187104, -28.502582221102802]}}, {"type": "Feature", "properties": {"norad_id": 30868, "name": "FENGYUN 1C DEB", "group": "fengyun-1c-debris", "lat": -81.38902513261775, "lon": -19.486283841219013, "alt_km": 851.4624510866925, "timestamp": "2025-12-22T22:44:21.254688+00:00", "meta": {"OBJECT_NAME": "FENGYUN 1C DEB", "OBJECT_ID": "1999-025AXE", "EPOCH": "2025-12-22T10:25:16.106016", "MEAN_MOTION": 14.11124897, "ECCENTRICITY": 0.01356549, "INCLINATION": 98.2631, "RA_OF_ASC_NODE": 233.7053, "ARG_OF_PERICENTER": 184.9579, "MEAN_ANOMALY": 355.1983, "EPHEMERIS_TYPE": 0, "CLASSIFICATION_TYPE": "U", "NORAD_CAT_ID": 30868, "ELEMENT_SET_NO": 999, "REV_AT_EPOCH": 96847, "BSTAR": 0.00011800711, "MEAN_MOTION_DOT": 1.93e-06, "MEAN_MOTION_DDOT": 0}, "tle": {"line1": "1 30868U 99025AXE 25356.43421419  .00000193  00000+0  11801-3 0  9995", "line2": "2 30868  98.2631 233.7053 0135654 184.9579 355.1983 14.11124897968472"}}, "geometry": {"type": "Point", "coordinates": [-19.486283841219013, -81.38902513261775]}}, {"type": "Feature", "properties": {"norad_id": 30872, "name": "FENGYUN 1C DEB", "group": "fengyun-1c-debris", "lat": 34.45007156971189, "lon": 43.67098119713991, "alt_km": 734.669151632058, "timestamp": "2025-12-22T22:44:21.254698+00:00", "meta": {"OBJECT_NAME": "FENGYUN 1C DEB", "OBJECT_ID": "1999-025AXJ", "EPOCH": "2025-12-20T02:19:23.094048", "MEAN_MOTION": 14.3945895, "ECCENTRICITY": 0.00405296, "INCLINATION": 99.1926, "RA_OF_ASC_NODE": 46.9941, "ARG_OF_PERICENTER": 6.8734, "MEAN_ANOMALY": 23.8694, "EPHEMERIS_TYPE": 0, "CLASSIFICATION_TYPE": "U", "NORAD_CAT_ID": 30872, "ELEMENT_SET_NO": 999, "REV_AT_EPOCH": 97842, "BSTAR": 0.00056969079, "MEAN_MOTION_DOT": 1.742e-05, "MEAN_MOTION_DDOT": 0}, "tle": {"line1": "1 30872U 99025AXJ 25354.09679507  .00001742  00000+0  56969-3 0  9998", "line2": "2 30872  99.1926  46.9941 0040529   6.8734  23.8694 14.39458950978429"}}, "geometry": {"type": "Point", "coordinates": [43.67098119713991, 34.45007156971189]}}, {"type": "Feature", "properties": {"norad_id": 30873, "name": "FENGYUN 1C DEB", "group": "fengyun-1c-debris", "lat": -63.19610660529347, "lon": 14.4242405593791, "alt_km": 772.7130799216729, "timestamp": "2025-12-22T22:44:21.254708+00:00", "meta": {"OBJECT_NAME": "FENGYUN 1C DEB", "OBJECT_ID": "1999-025AXK", "EPOCH": "2025-12-22T06:07:09.720768", "MEAN_MOTION": 14.19146559, "ECCENTRICITY": 0.01076852, "INCLINATION": 98.6118, "RA_OF_ASC_NODE": 356.2964, "ARG_OF_PERICENTER": 261.039, "MEAN_ANOMALY": 97.8585, "EPHEMERIS_TYPE": 0, "CLASSIFICATION_TYPE": "U", "NORAD_CAT_ID": 30873, "ELEMENT_SET_NO": 999, "REV_AT_EPOCH": 97327, "BSTAR": 0.00019031353, "MEAN_MOTION_DOT": 3.78e-06, "MEAN_MOTION_DDOT": 0}, "tle": {"line1": "1 30873U 99025AXK 25356.25497362  .00000378  00000+0  19031-3 0  9999", "line2": "2 30873  98.6118 356.2964 0107685 261.0390  97.8585 14.19146559973274"}}, "geometry": {"type": "Point", "coordinates": [14.4242405593791, -63.19610660529347]}}, {"type": "Feature", "properties": {"norad_id": 30874, "name": "FENGYUN 1C DEB", "group": "fengyun-1c-debris", "lat": -48.8539257375129, "lon": -162.7023889751851, "alt_km": 856.7396045010328, "timestamp": "2025-12-22T22:44:21.254718+00:00", "meta": {"OBJECT_NAME": "FENGYUN 1C DEB", "OBJECT_ID": "1999-025AXL", "EPOCH": "2025-12-22T01:30:09.586944", "MEAN_MOTION": 14.19666851, "ECCENTRICITY": 0.00415313, "INCLINATION": 98.4897, "RA_OF_ASC_NODE": 26.2916, "ARG_OF_PERICENTER": 13.769, "MEAN_ANOMALY": 16.2635, "EPHEMERIS_TYPE": 0, "CLASSIFICATION_TYPE": "U", "NORAD_CAT_ID": 30874, "ELEMENT_SET_NO": 999, "REV_AT_EPOCH": 97153, "BSTAR": 0.00041180333, "MEAN_MOTION_DOT": 8.36e-06, "MEAN_MOTION_DDOT": 0}, "tle": {"line1": "1 30874U 99025AXL 25356.06261096  .00000836  00000+0  41180-3 0  9991", "line2": "2 30874  98.4897  26.2916 0041531  13.7690  16.2635 14.19666851971530"}}, "geometry": {"type": "Point", "coordinates": [-162.7023889751851, -48.8539257375129]}}, {"type": "Feature", "properties": {"norad_id": 30876, "name": "FENGYUN 1C DEB", "group": "fengyun-1c-debris", "lat": -78.27381853277082, "lon": 113.27706773435087, "alt_km": 856.9804968838207, "timestamp": "2025-12-22T22:44:21.254728+00:00", "meta": {"OBJECT_NAME": "FENGYUN 1C DEB", "OBJECT_ID": "1999-025AXN", "EPOCH": "2025-12-22T04:36:52.070976", "MEAN_MOTION": 13.99181098, "ECCENTRICITY": 0.00662869, "INCLINATION": 98.8122, "RA_OF_ASC_NODE": 340.9112, "ARG_OF_PERICENTER": 251.0587, "MEAN_ANOMALY": 169.1077, "EPHEMERIS_TYPE": 0, "CLASSIFICATION_TYPE": "U", "NORAD_CAT_ID": 30876, "ELEMENT_SET_NO": 999, "REV_AT_EPOCH": 95842, "BSTAR": 0.00049610549, "MEAN_MOTION_DOT": 6.9e-06, "MEAN_MOTION_DDOT": 0}, "tle": {"line1": "1 30876U 99025AXN 25356.19226934  .00000690  00000+0  49611-3 0  9994", "line2": "2 30876  98.8122 340.9112 0066286 251.0587 169.1077 13.99181098958420"}}, "geometry": {"type": "Point", "coordinates": [113.27706773435087, -78.27381853277082]}}, {"type": "Feature", "properties": {"norad_id": 30878, "name": "FENGYUN 1C DEB", "group": "fengyun-1c-debris", "lat": 53.670216146667684, "lon": -169.81214743477213, "alt_km": 869.7104930167907, "timestamp": "2025-12-22T22:44:21.254738+00:00", "meta": {"OBJECT_NAME": "FENGYUN 1C DEB", "OBJECT_ID": "1999-025AXQ", "EPOCH": "2025-12-20T19:42:36.070848", "MEAN_MOTION": 14.11901976, "ECCENTRICITY": 0.00398876, "INCLINATION": 98.7204, "RA_OF_ASC_NODE": 356.0737, "ARG_OF_PERICENTER": 271.0719, "MEAN_ANOMALY": 213.36, "EPHEMERIS_TYPE": 0, "CLASSIFICATION_TYPE": "U", "NORAD_CAT_ID": 30878, "ELEMENT_SET_NO": 999, "REV_AT_EPOCH": 96481, "BSTAR": 0.0004377556, "MEAN_MOTION_DOT": 7.63e-06, "MEAN_MOTION_DDOT": 0}, "tle": {"line1": "1 30878U 99025AXQ 25354.82125082  .00000763  00000+0  43776-3 0  9993", "line2": "2 30878  98.7204 356.0737 0039887 271.0719 213.3600 14.11901976964813"}}, "geometry": {"type": "Point", "coordinates": [-169.81214743477213, 53.670216146667684]}}]}